UCLSat
1 42765U 17036A   17222.10826044  .00001154  00000-0  55446-4 0  9999
2 42765 097.4459 281.3151 0013837 087.1960 273.0859 15.20774205007417
NIUSat
1 42766U 17036B   17222.60864979  .00000963  00000-0  48396-4 0  9997
2 42766 097.4461 281.7192 0017945 071.9867 288.3321 15.19513348007354
Object C
1 42767U 17036C   17222.37221075  .00000494  00000-0  26629-4 0  9990
2 42767 097.4453 281.4185 0010509 076.8478 283.3928 15.19265677007319
LituanicaSAT 2
1 42768U 17036D   17222.60488615  .00001905  00000-0  92156-4 0  9998
2 42768 097.4459 281.7217 0018015 075.4027 284.9204 15.19678907007363
Object E
1 42769U 17036E   17222.60407426  .00000580  00000-0  30362-4 0  9999
2 42769 097.4459 281.7243 0017448 073.4724 286.8426 15.19636409007283
InflateSail
1 42770U 17036F   17222.58762688  .00208221  00000-0  59208-2 0  9992
2 42770 097.4474 282.2054 0010431 145.0512 215.1418 15.35251390007325
Object G
1 42771U 17036G   17222.40202760  .00001647  00000-0  79794-4 0  9991
2 42771 097.4461 281.5351 0017061 075.4884 284.8242 15.19836663007274
Object H
1 42772U 17036H   17222.59777476  .00001629  00000-0  78826-4 0  9998
2 42772 097.4459 281.7316 0016737 074.4946 285.8135 15.19891560007305
Object J
1 42773U 17036J   17222.46449606  .00001824  00000-0  87733-4 0  9990
2 42773 097.4459 281.6043 0016543 074.9373 285.3691 15.19947668007286
Object K
1 42774U 17036K   17222.59555367  .00001421  00000-0  69080-4 0  9995
2 42774 097.4461 281.7367 0016493 074.2911 286.0142 15.19948852007291
Aalto 1
1 42775U 17036L   17222.59276301  .00000803  00000-0  40365-4 0  9992
2 42775 097.4460 281.7397 0016083 073.1551 287.1446 15.20003587007307
URSA MAIOR
1 42776U 17036M   17222.59158015  .00000817  00000-0  40967-4 0  9997
2 42776 097.4462 281.7428 0015948 073.5821 286.7165 15.20041765007301
Max Valier Sat
1 42778U 17036P   17222.57958785  .00000960  00000-0  47095-4 0  9997
2 42778 097.4477 281.7690 0014603 079.2917 280.9962 15.20425504007292
Object Q
1 42779U 17036Q   17222.44525452  .00001770  00000-0  83832-4 0  9994
2 42779 097.4459 281.6330 0014716 084.7416 275.5498 15.20550265007267
Object R
1 42780U 17036R   17222.44447895  .00001430  00000-0  68349-4 0  9999
2 42780 097.4461 281.6317 0014565 084.3035 275.9861 15.20560726007274
Object S
1 42781U 17036S   17222.44370913  .00001849  00000-0  87313-4 0  9992
2 42781 097.4461 281.6321 0014503 084.7242 275.5647 15.20601630007263
Object T
1 42782U 17036T   17222.44282917  .00001743  00000-0  82466-4 0  9996
2 42782 097.4462 281.6346 0014360 084.6195 275.6678 15.20627659007263
Object U
1 42783U 17036U   17222.44229397  .00001025  00000-0  49818-4 0  9997
2 42783 097.4461 281.6343 0014433 085.8736 274.4149 15.20605558007270
Pegasus
1 42784U 17036V   17222.44134579  .00001093  00000-0  52862-4 0  9993
2 42784 097.4461 281.6363 0014374 086.0465 274.2413 15.20641252007272
Object W
1 42785U 17036W   17222.44116659  .00000836  00000-0  41194-4 0  9993
2 42785 097.4462 281.6371 0014331 085.9357 274.3516 15.20632928007347
Object X
1 42786U 17036X   17222.43971834  .00000414  00000-0  21977-4 0  9996
2 42786 097.4461 281.6383 0014171 086.3138 273.9718 15.20667803007343
NUDATSat
1 42787U 17036Y   17222.56949643  .00001592  00000-0  75255-4 0  9990
2 42787 097.4461 281.7702 0014033 086.1641 274.1199 15.20778460007139
SUCHAI 1
1 42788U 17036Z   17222.43846272  .00001302  00000-0  62185-4 0  9998
2 42788 097.4461 281.6392 0014027 086.3294 273.9545 15.20742704007340
SKCUBE
1 42789U 17036AA  17222.50294167  .00001206  00000-0  57770-4 0  9994
2 42789 097.4459 281.7055 0013840 086.1183 274.1634 15.20780654007272
VZLUSAT 1
1 42790U 17036AB  17222.43482463  .00001413  00000-0  67004-4 0  9997
2 42790 097.4458 281.6419 0013579 086.8236 273.4553 15.20864114007266
VENTA 1
1 42791U 17036AC  17222.49958727  .00001188  00000-0  56787-4 0  9990
2 42791 097.4459 281.7096 0013443 086.8608 273.4165 15.20883123007263
Robusta 1B
1 42792U 17036AD  17222.43329298  .00001287  00000-0  61252-4 0  9993
2 42792 097.4457 281.6437 0013414 087.4908 272.7863 15.20904196007270
Object AE
1 42793U 17036AE  17222.36118601  .00000908  00000-0  43896-4 0  9993
2 42793 097.4457 281.5866 0012485 088.3689 271.8977 15.21082241007331
D-SAT
1 42794U 17036AF  17222.35885476  .00000740  00000-0  36326-4 0  9998
2 42794 097.4454 281.5883 0011632 086.1001 274.1564 15.21149324007250
Object AG
1 42795U 17036AG  17222.54947862  .00001810  00000-0  81849-4 0  9997
2 42795 097.4510 281.7916 0008391 069.2728 290.9406 15.22189512007287
BIRD-J
1 42820U 98067MU  17222.15510132  .00008812  00000-0  13315-3 0  9993
2 42820 051.6398 129.0369 0004209 090.4255 269.7219 15.55559829005274
BIRD-G
1 42821U 98067MV  17221.96325402  .00008201  00000-0  12465-3 0  9993
2 42821 051.6399 130.0059 0004295 091.1932 268.9551 15.55505784005203
BIRD-M
1 42822U 98067MW  17222.54200886  .00008753  00000-0  13260-3 0  9993
2 42822 051.6399 127.1212 0004297 095.4290 264.7191 15.55497383005319
BIRD-B
1 42823U 98067MX  17222.15751999  .00008575  00000-0  13021-3 0  9994
2 42823 051.6400 129.0546 0007909 106.9020 253.2839 15.55448347005235
BIRD-N
1 42824U 98067MY  17222.15868067  .00008425  00000-0  12833-3 0  9994
2 42824 051.6402 129.0623 0007702 108.0715 252.1116 15.55391696005228
TechnoSat
1 42829U 17042E   17222.58825928  .00000077  00000-0  13272-4 0  9993
2 42829 097.6115 131.3139 0015073 146.8560 213.3606 14.90637754004059
Mayak
1 42830U 17042F   17222.45342221  .00000547  00000-0  61131-4 0  9990
2 42830 097.6120 131.1876 0015272 144.5511 215.6726 14.90682825004030
